NORAD_CAT_ID,OBJECT_NAME,OBJECT_TYPE,EPOCH,MEAN_MOTION,ECCENTRICITY,INCLINATION,RA_OF_ASC_NODE,ARG_OF_PERICENTER,MEAN_ANOMALY,BSTAR,MEAN_MOTION_DOT,MEAN_MOTION_DDOT,TLE_LINE0,TLE_LINE1,TLE_LINE2,SEMIMAJOR_AXIS,PERIOD,APOGEE,PERIGEE,DECAYED
51989.0,STARLINK-3642,PAYLOAD,2023-08-21 07:25:28,15.08840344,0.0001211,53.2164,260.2516,100.5267,259.5862,6.2048e-05,7e-06,0.0,0 STARLINK-3642,1 51989U 22025AK  23233.30935617  .00000700  00000-0  62048-4 0  9991,2 51989  53.2164 260.2516 0001211 100.5267 259.5862 15.08840344 81556,6917.879,95.438,540.582,538.907,0.0
51989.0,STARLINK-3642,PAYLOAD,2023-08-22 02:30:06,15.08834571,0.0001189,53.2164,256.6833,96.348,263.7647,3.1434e-05,2.12e-06,0.0,0 STARLINK-3642,1 51989U 22025AK  23234.10424172  .00000212  00000-0  31434-4 0  9992,2 51989  53.2164 256.6833 0001189  96.3480 263.7647 15.08834571 81676,6917.897,95.438,540.585,538.939,0.0
51989.0,STARLINK-3642,PAYLOAD,2023-08-23 08:42:26,15.08837484,0.0001238,53.216,251.0332,101.3162,258.7969,5.7858e-06,-1.96e-06,0.0,0 STARLINK-3642,1 51989U 22025AK  23235.36280333 -.00000196  00000-0  57858-5 0  9991,2 51989  53.2160 251.0332 0001238 101.3162 258.7969 15.08837484 81862,6917.888,95.438,540.61,538.897,0.0
51989.0,STARLINK-3642,PAYLOAD,2023-08-24 08:33:12,15.08843189,0.0001215,53.2157,246.5721,90.2516,269.8615,7.6596e-05,9.31e-06,0.0,0 STARLINK-3642,1 51989U 22025AK  23236.35639887  .00000931  00000-0  76596-4 0  9998,2 51989  53.2157 246.5721 0001215  90.2516 269.8615 15.08843189 82011,6917.871,95.437,540.576,538.895,0.0
51989.0,STARLINK-3642,PAYLOAD,2023-08-25 06:48:37,15.08836958,0.000136,53.2157,242.4096,76.7158,283.3986,5.0116e-05,5.1e-06,0.0,0 STARLINK-3642,1 51989U 22025AK  23237.28376579  .00000510  00000-0  50116-4 0  9990,2 51989  53.2157 242.4096 0001360  76.7158 283.3986 15.08836958 82156,6917.89,95.438,540.696,538.814,0.0
51989.0,STARLINK-3642,PAYLOAD,2023-08-25 09:59:23,15.08839218,0.0001314,53.2155,241.8143,81.1284,278.9856,6.4055e-05,7.32e-06,0.0,0 STARLINK-3642,1 51989U 22025AK  23237.41624395  .00000732  00000-0  64055-4 0  9990,2 51989  53.2155 241.8143 0001314  81.1284 278.9856 15.08839218 81077,6917.883,95.438,540.657,538.839,0.0
51989.0,STARLINK-3642,PAYLOAD,2023-08-26 09:50:10,15.08845887,0.0001318,53.2157,237.3533,86.823,273.2913,6.7483e-05,7.86e-06,0.0,0 STARLINK-3642,1 51989U 22025AK  23238.40983839  .00000786  00000-0  67483-4 0  9998,2 51989  53.2157 237.3533 0001318  86.8230 273.2913 15.08845887 82329,6917.862,95.437,540.639,538.816,0.0
51989.0,STARLINK-3642,PAYLOAD,2023-08-26 11:25:33,15.08847319,0.000133,53.2158,237.0561,87.582,272.5325,8.1457e-05,1.009e-05,0.0,0 STARLINK-3642,1 51989U 22025AK  23238.47607686  .00001009  00000-0  81457-4 0  9994,2 51989  53.2158 237.0561 0001330  87.5820 272.5325 15.08847319 81235,6917.858,95.437,540.643,538.803,0.0
51989.0,STARLINK-3642,PAYLOAD,2023-08-27 00:08:38,15.08837745,0.0001372,53.2163,234.6767,100.5187,259.596,2.7889e-05,1.56e-06,0.0,0 STARLINK-3642,1 51989U 22025AK  23239.00600382  .00000156  00000-0  27889-4 0  9991,2 51989  53.2163 234.6767 0001372 100.5187 259.5960 15.08837745 82413,6917.887,95.438,540.701,538.803,0.0
51989.0,STARLINK-3642,PAYLOAD,2023-08-27 04:54:48,15.0883913,0.0001377,53.2164,233.7847,100.4595,259.6552,3.7527e-05,3.09e-06,0.0,0 STARLINK-3642,1 51989U 22025AK  23239.20472274  .00000309  00000-0  37527-4 0  9990,2 51989  53.2164 233.7847 0001377 100.4595 259.6552 15.08839130 81349,6917.883,95.438,540.701,538.795,0.0
51989.0,STARLINK-3642,PAYLOAD,2023-08-28 01:34:48,15.08821143,0.0001633,53.2159,229.9208,119.3979,240.7176,0.00022136,3.235e-05,0.0,0 STARLINK-3642,1 51989U 22025AK  23240.06584490  .00003235  00000-0  22136-3 0  9990,2 51989  53.2159 229.9208 0001633 119.3979 240.7176 15.08821143 82575,6917.938,95.439,540.933,538.673,0.0
51989.0,STARLINK-3642,PAYLOAD,2023-08-28 09:31:44,15.08841369,0.000133,53.2162,228.433,93.1958,266.9186,-1.601e-07,-2.9e-06,0.0,0 STARLINK-3642,1 51989U 22025AK  23240.39704308 -.00000290  00000-0 -16010-6 0  9995,2 51989  53.2162 228.4330 0001330  93.1958 266.9186 15.08841369 82628,6917.876,95.437,540.661,538.821,0.0
51989.0,STARLINK-3642,PAYLOAD,2023-08-28 15:53:17,15.08836349,0.0001314,53.2159,227.243,91.0433,269.071,-4.2944e-05,-9.71e-06,0.0,0 STARLINK-3642,1 51989U 22025AK  23240.66200764 -.00000971  00000-0 -42944-4 0  9991,2 51989  53.2159 227.2430 0001314  91.0433 269.0710 15.08836349 81560,6917.892,95.438,540.666,538.848,0.0
51989.0,STARLINK-3642,PAYLOAD,2023-08-29 09:22:31,15.08840699,0.000132,53.2162,223.9727,93.4507,266.6637,6.6567e-05,7.72e-06,0.0,0 STARLINK-3642,1 51989U 22025AK  23241.39064332  .00000772  00000-0  66567-4 0  9995,2 51989  53.2162 223.9727 0001320  93.4507 266.6637 15.08840699 82779,6917.878,95.438,540.656,538.83,0.0
51989.0,STARLINK-3642,PAYLOAD,2023-08-30 06:02:33,15.0883311,0.0001335,53.2165,220.1064,91.1621,268.9524,7.6221e-06,-1.67e-06,0.0,0 STARLINK-3642,1 51989U 22025AK  23242.25177333 -.00000167  00000-0  76221-5 0  9995,2 51989  53.2165 220.1064 0001335  91.1621 268.9524 15.08833110 82908,6917.901,95.438,540.69,538.843,0.0
51989.0,STARLINK-3642,PAYLOAD,2023-08-30 15:34:51,15.08837076,0.0001338,53.2165,218.3222,89.9136,270.2009,2.122e-05,5e-07,0.0,0 STARLINK-3642,1 51989U 22025AK  23242.64921156  .00000050  00000-0  21220-4 0  9996,2 51989  53.2165 218.3222 0001338  89.9136 270.2009 15.08837076 81865,6917.889,95.438,540.68,538.829,0.0
51989.0,STARLINK-3642,PAYLOAD,2023-08-31 07:28:42,15.08844618,0.0001301,53.2163,215.348,91.5163,268.5979,6.291e-05,7.14e-06,0.0,0 STARLINK-3642,1 51989U 22025AK  23243.31160602  .00000714  00000-0  62910-4 0  9990,2 51989  53.2163 215.3480 0001301  91.5163 268.5979 15.08844618 83065,6917.866,95.437,540.631,538.831,0.0
51989.0,STARLINK-3642,PAYLOAD,2023-09-01 04:08:44,15.08834875,0.0001456,53.2161,211.4824,88.2473,271.8686,3.4082e-05,2.54e-06,0.0,0 STARLINK-3642,1 51989U 22025AK  23244.17273570  .00000254  00000-0  34082-4 0  9992,2 51989  53.2161 211.4824 0001456  88.2473 271.8686 15.08834875 83190,6917.896,95.438,540.768,538.754,0.0
51989.0,STARLINK-3642,PAYLOAD,2023-09-02 07:10:16,15.0884817,0.0001325,53.2162,206.4271,90.7828,269.3316,0.00010884,1.445e-05,0.0,0 STARLINK-3642,1 51989U 22025AK  23245.29880326  .00001445  00000-0  10884-3 0  9995,2 51989  53.2162 206.4271 0001325  90.7828 269.3316 15.08848170 83362,6917.855,95.437,540.637,538.804,0.0
51989.0,STARLINK-3642,PAYLOAD,2023-09-02 15:07:12,15.0884073,0.0001635,53.2136,204.9403,88.881,271.237,7.9017e-05,9.7e-06,0.0,0 STARLINK-3642,1 51989U 22025AK  23245.63000792  .00000970  00000-0  79017-4 0  9990,2 51989  53.2136 204.9403 0001635  88.8810 271.2370 15.08840730 83418,6917.878,95.438,540.874,538.612,0.0
51989.0,STARLINK-3642,PAYLOAD,2023-09-03 07:01:03,15.08844637,0.0001614,53.2169,201.9657,100.803,259.3144,2.5002e-05,1.1e-06,0.0,0 STARLINK-3642,1 51989U 22025AK  23246.29240700  .00000110  00000-0  25002-4 0  9999,2 51989  53.2169 201.9657 0001614 100.8030 259.3144 15.08844637 82413,6917.866,95.437,540.848,538.615,0.0
51989.0,STARLINK-3642,PAYLOAD,2023-09-03 22:54:56,15.0882225,0.0001127,53.2164,198.9927,91.6056,268.5066,-5.7651e-05,-1.205e-05,0.0,0 STARLINK-3642,1 51989U 22025AK  23246.95482408 -.00001205  00000-0 -57651-4 0  9998,2 51989  53.2164 198.9927 0001127  91.6056 268.5066 15.08822250 83612,6917.935,95.439,540.579,539.02,0.0
51989.0,STARLINK-3642,PAYLOAD,2023-09-04 03:41:06,15.08827862,0.0001604,53.2156,198.1019,88.8541,271.2635,-1.7012e-05,-5.59e-06,0.0,0 STARLINK-3642,1 51989U 22025AK  23247.15354170 -.00000559  00000-0 -17012-4 0  9993,2 51989  53.2156 198.1019 0001604  88.8541 271.2635 15.08827862 83644,6917.917,95.438,540.892,538.673,0.0
51989.0,STARLINK-3642,PAYLOAD,2023-09-04 13:13:24,15.08832807,0.0001509,53.2165,196.3178,88.1356,271.9809,7.1911e-06,-1.74e-06,0.0,0 STARLINK-3642,1 51989U 22025AK  23247.55097991 -.00000174  00000-0  71911-5 0  9993,2 51989  53.2165 196.3178 0001509  88.1356 271.9809 15.08832807 82601,6917.902,95.438,540.811,538.723,0.0
51989.0,STARLINK-3642,PAYLOAD,2023-09-04 21:10:20,15.08833542,0.0001272,53.2166,194.8305,95.2136,264.9001,3.9302e-05,3.38e-06,0.0,0 STARLINK-3642,1 51989U 22025AK  23247.88217934  .00000338  00000-0  39302-4 0  9998,2 51989  53.2166 194.8305 0001272  95.2136 264.9001 15.08833542 83759,6917.9,95.438,540.645,538.885,0.0
51989.0,STARLINK-3642,PAYLOAD,2023-09-05 03:31:52,15.08839332,0.0001276,53.2169,193.6419,95.7601,264.3537,8.9759e-05,1.141e-05,0.0,0 STARLINK-3642,1 51989U 22025AK  23248.14713529  .00001141  00000-0  89759-4 0  9993,2 51989  53.2169 193.6419 0001276  95.7601 264.3537 15.08839332 83796,6917.882,95.438,540.63,538.865,0.0
51989.0,STARLINK-3642,PAYLOAD,2023-09-06 06:33:25,15.08845327,0.0001349,53.2175,188.587,90.6144,269.5003,0.00020932,3.045e-05,0.0,0 STARLINK-3642,1 51989U 22025AK  23249.27321335  .00003045  00000-0  20932-3 0  9990,2 51989  53.2175 188.5870 0001349  90.6144 269.5003 15.08845327 83969,6917.864,95.437,540.662,538.796,0.0
51989.0,STARLINK-3642,PAYLOAD,2023-09-07 04:48:50,15.08838912,0.0001526,53.217,184.423,101.7132,258.4032,-9.2459e-07,-3.03e-06,0.0,0 STARLINK-3642,1 51989U 22025AK  23250.20058349 -.00000303  00000-0 -92459-6 0  9999,2 51989  53.2170 184.4230 0001526 101.7132 258.4032 15.08838912 84105,6917.884,95.438,540.804,538.693,0.0
51989.0,STARLINK-3642,PAYLOAD,2023-09-08 03:04:13,15.08846566,0.0001372,53.2172,180.2599,86.792,273.3229,3.4983e-05,2.69e-06,0.0,0 STARLINK-3642,1 51989U 22025AK  23251.12793805  .00000269  00000-0  34983-4 0  9999,2 51989  53.2172 180.2599 0001372  86.7920 273.3229 15.08846566 84248,6917.86,95.437,540.674,538.776,0.0
51989.0,STARLINK-3642,PAYLOAD,2023-09-09 04:30:23,15.0885081,0.0001395,53.2174,175.502,91.1054,269.0098,0.00016292,2.307e-05,0.0,0 STARLINK-3642,1 51989U 22025AK  23252.18777085  .00002307  00000-0  16292-3 0  9995,2 51989  53.2174 175.5020 0001395  91.1054 269.0098 15.08850810 84400,6917.847,95.437,540.677,538.747,0.0
